[{"OBJECT_NAME":"KUIPER-00191","OBJECT_ID":"2025-301L","EPOCH":"2026-03-09T22:00:01.999584","MEAN_MOTION":14.8089991,"ECCENTRICITY":7.905e-5,"INCLINATION":51.9002,"RA_OF_ASC_NODE":72.1442,"ARG_OF_PERICENTER":129.7775,"MEAN_ANOMALY":22.6806,"EPHEMERIS_TYPE":0,"CLASSIFICATION_TYPE":"U","NORAD_CAT_ID":67143,"ELEMENT_SET_NO":999,"REV_AT_EPOCH":559,"BSTAR":0.0016415783,"MEAN_MOTION_DOT":0.00012607,"MEAN_MOTION_DDOT":0},{"OBJECT_NAME":"SL-14 R\/B","OBJECT_ID":"1984-013B","EPOCH":"2026-03-09T21:53:32.043552","MEAN_MOTION":14.85593199,"ECCENTRICITY":0.00173304,"INCLINATION":82.5338,"RA_OF_ASC_NODE":55.8507,"ARG_OF_PERICENTER":246.9653,"MEAN_ANOMALY":176.0622,"EPHEMERIS_TYPE":0,"CLASSIFICATION_TYPE":"U","NORAD_CAT_ID":14700,"ELEMENT_SET_NO":999,"REV_AT_EPOCH":25260,"BSTAR":7.3984203e-5,"MEAN_MOTION_DOT":6.65e-6,"MEAN_MOTION_DDOT":0}]
